{
  "type": "FeatureCollection",
  "features": [
    {
      "type": "Feature",
      "properties": {
        "norad_id": 29922,
        "name": "FENGYUN 1C DEB",
        "group": "fengyun-1c-debris",
        "lat": 72.84176554333402,
        "lon": 26.718781120557715,
        "alt_km": 910.8264186700053,
        "timestamp": "2025-12-26T17:24:54.991796+00:00",
        "meta_object_name": "FENGYUN 1C DEB",
        "meta_object_id": "1999-025HU",
        "meta_epoch": "2025-12-26T03:19:21.669600",
        "meta_mean_motion": 13.98584037,
        "meta_eccentricity": 0.00924358,
        "meta_inclination": 99.133,
        "meta_ra_of_asc_node": 57.5345,
        "meta_arg_of_pericenter": 329.9994,
        "meta_mean_anomaly": 29.5891,
        "meta_ephemeris_type": 0,
        "meta_classification_type": "U",
        "meta_norad_cat_id": 29922,
        "meta_element_set_no": 999,
        "meta_rev_at_epoch": 96628,
        "meta_bstar": 9.9135259e-05,
        "meta_mean_motion_dot": 1.02e-06,
        "meta_mean_motion_ddot": 0,
        "tle_line1": "1 29922U 99025HU  25360.13844525  .00000102  00000+0  99135-4 0  9990",
        "tle_line2": "2 29922  99.1330  57.5345 0092435 329.9994  29.5891 13.98584037966281"
      },
      "geometry": {
        "type": "Point",
        "coordinates": [
          26.718781120557715,
          72.84176554333402
        ]
      }
    },
    {
      "type": "Feature",
      "properties": {
        "norad_id": 29923,
        "name": "FENGYUN 1C DEB",
        "group": "fengyun-1c-debris",
        "lat": -34.04980539211623,
        "lon": 14.554743099061168,
        "alt_km": 864.7527585019861,
        "timestamp": "2025-12-26T17:24:54.991806+00:00",
        "meta_object_name": "FENGYUN 1C DEB",
        "meta_object_id": "1999-025HV",
        "meta_epoch": "2025-12-26T07:27:51.458400",
        "meta_mean_motion": 14.13916089,
        "meta_eccentricity": 0.00180894,
        "meta_inclination": 98.6879,
        "meta_ra_of_asc_node": 8.221,
        "meta_arg_of_pericenter": 131.5706,
        "meta_mean_anomaly": 244.7897,
        "meta_ephemeris_type": 0,
        "meta_classification_type": "U",
        "meta_norad_cat_id": 29923,
        "meta_element_set_no": 999,
        "meta_rev_at_epoch": 97467,
        "meta_bstar": 0.00046572815,
        "meta_mean_motion_dot": 8.42e-06,
        "meta_mean_motion_ddot": 0,
        "tle_line1": "1 29923U 99025HV  25360.31101225  .00000842  00000+0  46573-3 0  9992",
        "tle_line2": "2 29923  98.6879   8.2210 0018089 131.5706 244.7897 14.13916089974672"
      },
      "geometry": {
        "type": "Point",
        "coordinates": [
          14.554743099061168,
          -34.04980539211623
        ]
      }
    },
    {
      "type": "Feature",
      "properties": {
        "norad_id": 29924,
        "name": "FENGYUN 1C DEB",
        "group": "fengyun-1c-debris",
        "lat": 47.00295633385684,
        "lon": 3.7592246575508343,
        "alt_km": 877.6437475208013,
        "timestamp": "2025-12-26T17:24:54.991816+00:00",
        "meta_object_name": "FENGYUN 1C DEB",
        "meta_object_id": "1999-025HW",
        "meta_epoch": "2025-12-26T00:16:46.177248",
        "meta_mean_motion": 14.08893707,
        "meta_eccentricity": 0.00262673,
        "meta_inclination": 98.7338,
        "meta_ra_of_asc_node": 12.5568,
        "meta_arg_of_pericenter": 218.9429,
        "meta_mean_anomaly": 169.56,
        "meta_ephemeris_type": 0,
        "meta_classification_type": "U",
        "meta_norad_cat_id": 29924,
        "meta_element_set_no": 999,
        "meta_rev_at_epoch": 97395,
        "meta_bstar": 2.410519e-06,
        "meta_mean_motion_dot": -3.9e-07,
        "meta_mean_motion_ddot": 0,
        "tle_line1": "1 29924U 99025HW  25360.01164557 -.00000039  00000+0  24105-5 0  9995",
        "tle_line2": "2 29924  98.7338  12.5568 0026267 218.9429 169.5600 14.08893707973958"
      },
      "geometry": {
        "type": "Point",
        "coordinates": [
          3.7592246575508343,
          47.00295633385684
        ]
      }
    },
    {
      "type": "Feature",
      "properties": {
        "norad_id": 29926,
        "name": "FENGYUN 1C DEB",
        "group": "fengyun-1c-debris",
        "lat": 67.15450782009228,
        "lon": -31.18891686092932,
        "alt_km": 948.5882929323698,
        "timestamp": "2025-12-26T17:24:54.991826+00:00",
        "meta_object_name": "FENGYUN 1C DEB",
        "meta_object_id": "1999-025HY",
        "meta_epoch": "2025-12-25T22:55:18.168960",
        "meta_mean_motion": 14.33426401,
        "meta_eccentricity": 0.0247899,
        "meta_inclination": 98.2843,
        "meta_ra_of_asc_node": 348.3054,
        "meta_arg_of_pericenter": 260.6184,
        "meta_mean_anomaly": 153.4943,
        "meta_ephemeris_type": 0,
        "meta_classification_type": "U",
        "meta_norad_cat_id": 29926,
        "meta_element_set_no": 999,
        "meta_rev_at_epoch": 98770,
        "meta_bstar": 0.00029126,
        "meta_mean_motion_dot": 1.08e-05,
        "meta_mean_motion_ddot": 0,
        "tle_line1": "1 29926U 99025HY  25359.95507140  .00001080  00000+0  29126-3 0  9999",
        "tle_line2": "2 29926  98.2843 348.3054 0247899 260.6184 153.4943 14.33426401987705"
      },
      "geometry": {
        "type": "Point",
        "coordinates": [
          -31.18891686092932,
          67.15450782009228
        ]
      }
    },
    {
      "type": "Feature",
      "properties": {
        "norad_id": 29927,
        "name": "FENGYUN 1C DEB",
        "group": "fengyun-1c-debris",
        "lat": 59.36736821563775,
        "lon": -137.9621819611976,
        "alt_km": 630.7402940329539,
        "timestamp": "2025-12-26T17:24:54.991836+00:00",
        "meta_object_name": "FENGYUN 1C DEB",
        "meta_object_id": "1999-025HZ",
        "meta_epoch": "2025-12-25T13:53:01.192128",
        "meta_mean_motion": 14.75020667,
        "meta_eccentricity": 0.0018124,
        "meta_inclination": 99.0831,
        "meta_ra_of_asc_node": 25.0782,
        "meta_arg_of_pericenter": 171.5458,
        "meta_mean_anomaly": 339.9554,
        "meta_ephemeris_type": 0,
        "meta_classification_type": "U",
        "meta_norad_cat_id": 29927,
        "meta_element_set_no": 999,
        "meta_rev_at_epoch": 98836,
        "meta_bstar": 0.0029982,
        "meta_mean_motion_dot": 0.00020225,
        "meta_mean_motion_ddot": 0,
        "tle_line1": "1 29927U 99025HZ  25359.57848602  .00020225  00000+0  29982-2 0  9990",
        "tle_line2": "2 29927  99.0831  25.0782 0018124 171.5458 339.9554 14.75020667988362"
      },
      "geometry": {
        "type": "Point",
        "coordinates": [
          -137.9621819611976,
          59.36736821563775
        ]
      }
    },
    {
      "type": "Feature",
      "properties": {
        "norad_id": 29928,
        "name": "FENGYUN 1C DEB",
        "group": "fengyun-1c-debris",
        "lat": -11.72717073215858,
        "lon": -156.64590874580702,
        "alt_km": 999.743922103481,
        "timestamp": "2025-12-26T17:24:54.991846+00:00",
        "meta_object_name": "FENGYUN 1C DEB",
        "meta_object_id": "1999-025JA",
        "meta_epoch": "2025-12-26T01:04:15.737376",
        "meta_mean_motion": 13.88106352,
        "meta_eccentricity": 0.01430105,
        "meta_inclination": 99.5833,
        "meta_ra_of_asc_node": 24.6648,
        "meta_arg_of_pericenter": 67.768,
        "meta_mean_anomaly": 321.3544,
        "meta_ephemeris_type": 0,
        "meta_classification_type": "U",
        "meta_norad_cat_id": 29928,
        "meta_element_set_no": 999,
        "meta_rev_at_epoch": 95676,
        "meta_bstar": 0.00060923664,
        "meta_mean_motion_dot": 7.42e-06,
        "meta_mean_motion_ddot": 0,
        "tle_line1": "1 29928U 99025JA  25360.04462659  .00000742  00000+0  60924-3 0  9993",
        "tle_line2": "2 29928  99.5833  24.6648 0143010  67.7680 321.3544 13.88106352956764"
      },
      "geometry": {
        "type": "Point",
        "coordinates": [
          -156.64590874580702,
          -11.72717073215858
        ]
      }
    },
    {
      "type": "Feature",
      "properties": {
        "norad_id": 29929,
        "name": "FENGYUN 1C DEB",
        "group": "fengyun-1c-debris",
        "lat": -0.48280753146913347,
        "lon": -80.71984284508213,
        "alt_km": 961.8303816236348,
        "timestamp": "2025-12-26T17:24:54.991856+00:00",
        "meta_object_name": "FENGYUN 1C DEB",
        "meta_object_id": "1999-025JB",
        "meta_epoch": "2025-12-25T17:34:16.221216",
        "meta_mean_motion": 14.01399597,
        "meta_eccentricity": 0.0131859,
        "meta_inclination": 98.6246,
        "meta_ra_of_asc_node": 278.2677,
        "meta_arg_of_pericenter": 139.7843,
        "meta_mean_anomaly": 251.3836,
        "meta_ephemeris_type": 0,
        "meta_classification_type": "U",
        "meta_norad_cat_id": 29929,
        "meta_element_set_no": 999,
        "meta_rev_at_epoch": 96138,
        "meta_bstar": 0.0010439324,
        "meta_mean_motion_dot": 1.659e-05,
        "meta_mean_motion_ddot": 0,
        "tle_line1": "1 29929U 99025JB  25359.73213219  .00001659  00000+0  10439-2 0  9997",
        "tle_line2": "2 29929  98.6246 278.2677 0131859 139.7843 251.3836 14.01399597961382"
      },
      "geometry": {
        "type": "Point",
        "coordinates": [
          -80.71984284508213,
          -0.48280753146913347
        ]
      }
    }
  ]
}